NORAD_CAT_ID,OBJECT_NAME,OBJECT_TYPE,EPOCH,MEAN_MOTION,ECCENTRICITY,INCLINATION,RA_OF_ASC_NODE,ARG_OF_PERICENTER,MEAN_ANOMALY,BSTAR,MEAN_MOTION_DOT,MEAN_MOTION_DDOT,TLE_LINE0,TLE_LINE1,TLE_LINE2,SEMIMAJOR_AXIS,PERIOD,APOGEE,PERIGEE,DECAYED
55284.0,STARLINK-5337,PAYLOAD,2024-02-13 14:11:13,14.98320506,0.0003265,70.0013,148.1605,274.1449,85.9337,-0.00034253,-4.177e-05,0.0,0 STARLINK-5337,1 55284U 23010R   24044.59112613 -.00004177  00000-0 -34253-3 0  9993,2 55284  70.0013 148.1605 0003265 274.1449  85.9337 14.98320506 59679,6950.222,96.108,574.356,569.818,0.0
55284.0,STARLINK-5337,PAYLOAD,2024-02-13 17:23:29,14.98317562,0.0003527,70.0007,147.8229,276.864,83.2117,-0.00035298,-4.301e-05,0.0,0 STARLINK-5337,1 55284U 23010R   24044.72464910 -.00004301  00000-0 -35298-3 0  9997,2 55284  70.0007 147.8229 0003527 276.8640  83.2117 14.98317562 59397,6950.231,96.108,574.548,569.645,0.0
55284.0,STARLINK-5337,PAYLOAD,2024-02-13 23:48:00,14.98339407,0.0003782,69.9991,147.1454,273.62,86.4526,-0.00026556,-3.261e-05,0.0,0 STARLINK-5337,1 55284U 23010R   24044.99167109 -.00003261  00000-0 -26556-3 0  9997,2 55284  69.9991 147.1454 0003782 273.6200  86.4526 14.98339407 59435,6950.164,96.106,574.657,569.4,0.0
55284.0,STARLINK-5337,PAYLOAD,2024-02-14 12:37:03,14.98341914,0.000303,70.0011,145.8024,273.2336,86.8476,0.00025008,2.893e-05,0.0,0 STARLINK-5337,1 55284U 23010R   24045.52573882  .00002893  00000-0  25008-3 0  9995,2 55284  70.0011 145.8024 0003030 273.2336  86.8476 14.98341914 59514,6950.156,96.106,574.127,569.915,0.0
55284.0,STARLINK-5337,PAYLOAD,2024-02-14 14:13:11,14.98346898,0.0003411,69.9996,145.6318,275.5374,84.5396,0.00028308,3.288e-05,0.0,0 STARLINK-5337,1 55284U 23010R   24045.59249504  .00003288  00000-0  28308-3 0  9998,2 55284  69.9996 145.6318 0003411 275.5374  84.5396 14.98346898 59823,6950.141,96.106,574.376,569.635,0.0
55284.0,STARLINK-5337,PAYLOAD,2024-02-14 17:25:27,14.98350697,0.0003282,70.0003,145.2954,277.269,82.8096,0.00031445,3.663e-05,0.0,0 STARLINK-5337,1 55284U 23010R   24045.72601070  .00003663  00000-0  31445-3 0  9996,2 55284  70.0003 145.2954 0003282 277.2690  82.8096 14.98350697 59542,6950.129,96.106,574.275,569.713,0.0
55284.0,STARLINK-5337,PAYLOAD,2024-02-15 11:02:58,14.98313788,0.0003599,70.0002,143.4461,272.1546,87.9201,0.00016768,1.907e-05,0.0,0 STARLINK-5337,1 55284U 23010R   24046.46039904  .00001907  00000-0  16768-3 0  9999,2 55284  70.0002 143.4461 0003599 272.1546  87.9201 14.98313788 59655,6950.243,96.108,574.609,569.607,0.0
55284.0,STARLINK-5337,PAYLOAD,2024-02-15 14:15:14,14.98317339,0.0003721,69.9998,143.1089,272.5211,87.5522,0.00017681,2.017e-05,0.0,0 STARLINK-5337,1 55284U 23010R   24046.59391757  .00002017  00000-0  17681-3 0  9998,2 55284  69.9998 143.1089 0003721 272.5211  87.5522 14.98317339 59972,6950.232,96.108,574.683,569.511,0.0
55284.0,STARLINK-5337,PAYLOAD,2024-02-15 15:51:22,14.98316321,0.0003495,70.0003,142.941,269.7507,90.3252,0.00017943,2.048e-05,0.0,0 STARLINK-5337,1 55284U 23010R   24046.66067859  .00002048  00000-0  17943-3 0  9994,2 55284  70.0003 142.9410 0003495 269.7507  90.3252 14.98316321 59984,6950.235,96.108,574.529,569.671,0.0
55284.0,STARLINK-5337,PAYLOAD,2024-02-15 23:52:02,14.98321595,0.000356,70.0,142.0978,271.4276,88.6475,0.00018799,2.15e-05,0.0,0 STARLINK-5337,1 55284U 23010R   24046.99447675  .00002150  00000-0  18799-3 0  9992,2 55284  70.0000 142.0978 0003560 271.4276  88.6475 14.98321595 59736,6950.219,96.108,574.558,569.61,0.0
55284.0,STARLINK-5337,PAYLOAD,2024-02-16 12:41:06,14.98344576,0.0003375,70.0,140.7521,270.5099,89.5673,-4.0143e-05,-5.72e-06,0.0,0 STARLINK-5337,1 55284U 23010R   24047.52854664 -.00000572  00000-0 -40143-4 0  9999,2 55284  70.0000 140.7521 0003375 270.5099  89.5673 14.98344576 59815,6950.148,96.106,574.358,569.667,0.0
55284.0,STARLINK-5337,PAYLOAD,2024-02-16 14:17:14,14.98348343,0.0003393,70.0,140.5837,270.929,89.148,-5.5721e-05,-7.58e-06,0.0,0 STARLINK-5337,1 55284U 23010R   24047.59530376 -.00000758  00000-0 -55721-4 0  9991,2 55284  70.0000 140.5837 0003393 270.9290  89.1480 14.98348343 60124,6950.136,96.106,574.359,569.643,0.0
55284.0,STARLINK-5337,PAYLOAD,2024-02-16 15:53:22,14.98348473,0.0003417,70.0001,140.4155,271.6454,88.4314,7.5504e-06,-3e-08,0.0,0 STARLINK-5337,1 55284U 23010R   24047.66206174 -.00000003  00000-0  75504-5 0  9999,2 55284  70.0001 140.4155 0003417 271.6454  88.4314 14.98348473 60137,6950.136,96.106,574.376,569.626,0.0
55284.0,STARLINK-5337,PAYLOAD,2024-02-16 23:54:03,14.98332297,0.0002964,70.001,139.5727,278.2882,81.7941,-2.2014e-05,-3.56e-06,0.0,0 STARLINK-5337,1 55284U 23010R   24047.99587159 -.00000356  00000-0 -22014-4 0  9999,2 55284  70.0010 139.5727 0002964 278.2882  81.7941 14.98332297 59884,6950.186,96.107,574.111,569.991,0.0
55284.0,STARLINK-5337,PAYLOAD,2024-02-17 14:19:16,14.9832528,0.0003037,70.0007,138.059,269.2924,90.7887,9.5682e-05,1.049e-05,0.0,0 STARLINK-5337,1 55284U 23010R   24048.59671412  .00001049  00000-0  95682-4 0  9991,2 55284  70.0007 138.0590 0003037 269.2924  90.7887 14.98325280 60279,6950.207,96.107,574.183,569.962,0.0
55284.0,STARLINK-5337,PAYLOAD,2024-02-17 15:55:24,14.9832691,0.0003067,70.0005,137.8907,269.2375,90.8432,0.00010736,1.188e-05,0.0,0 STARLINK-5337,1 55284U 23010R   24048.66347305  .00001188  00000-0  10736-3 0  9990,2 55284  70.0005 137.8907 0003067 269.2375  90.8432 14.98326910 60288,6950.202,96.107,574.199,569.936,0.0
55284.0,STARLINK-5337,PAYLOAD,2024-02-18 11:09:00,14.98334521,0.0003019,70.0008,135.8718,271.3943,88.687,2.9987e-05,2.65e-06,0.0,0 STARLINK-5337,1 55284U 23010R   24049.46459024  .00000265  00000-0  29987-4 0  9995,2 55284  70.0008 135.8718 0003019 271.3943  88.6870 14.98334521 60100,6950.179,96.107,574.142,569.946,0.0
55284.0,STARLINK-5337,PAYLOAD,2024-02-18 14:21:16,14.98349475,0.0002535,70.0007,135.5353,260.4996,99.5877,-0.00013773,-1.737e-05,0.0,0 STARLINK-5337,1 55284U 23010R   24049.59810347 -.00001737  00000-0 -13773-3 0  9990,2 55284  70.0007 135.5353 0002535 260.4996  99.5877 14.98349475 60427,6950.133,96.106,573.76,570.236,0.0
55284.0,STARLINK-5337,PAYLOAD,2024-02-18 15:57:23,14.98356227,0.0002531,70.0008,135.3671,259.5968,100.4906,-0.00022973,-2.835e-05,0.0,0 STARLINK-5337,1 55284U 23010R   24049.66486008 -.00002835  00000-0 -22973-3 0  9993,2 55284  70.0008 135.3671 0002531 259.5968 100.4906 14.98356227 60139,6950.112,96.105,573.736,570.218,0.0
55284.0,STARLINK-5337,PAYLOAD,2024-02-18 22:21:57,14.98339332,0.0002508,70.002,134.6923,276.2907,83.7966,-0.00012118,-1.539e-05,0.0,0 STARLINK-5337,1 55284U 23010R   24049.93191016 -.00001539  00000-0 -12118-3 0  9995,2 55284  70.0020 134.6923 0002508 276.2907  83.7966 14.98339332 60472,6950.164,96.106,573.772,570.286,0.0
55284.0,STARLINK-5337,PAYLOAD,2024-02-19 09:34:53,14.98325787,0.0002938,70.0007,133.5153,274.5556,85.5267,7.1413e-05,7.59e-06,0.0,0 STARLINK-5337,1 55284U 23010R   24050.39923404  .00000759  00000-0  71413-4 0  9996,2 55284  70.0007 133.5153 0002938 274.5556  85.5267 14.98325787 60246,6950.206,96.107,574.113,570.029,0.0
55284.0,STARLINK-5337,PAYLOAD,2024-02-19 14:23:18,14.9832728,0.0002816,70.0007,133.0108,269.8281,90.2556,4.4017e-05,4.32e-06,0.0,0 STARLINK-5337,1 55284U 23010R   24050.59951393  .00000432  00000-0  44017-4 0  9994,2 55284  70.0007 133.0108 0002816 269.8281  90.2556 14.98327280 60578,6950.201,96.107,574.023,570.109,0.0
55284.0,STARLINK-5337,PAYLOAD,2024-02-19 22:23:57,14.98345651,0.0002918,70.0007,132.1685,276.1712,83.9115,-0.0003087,-3.776e-05,0.0,0 STARLINK-5337,1 55284U 23010R   24050.93330895 -.00003776  00000-0 -30870-3 0  9997,2 55284  70.0007 132.1685 0002918 276.1712  83.9115 14.98345651 60629,6950.144,96.106,574.038,569.981,0.0
55284.0,STARLINK-5337,PAYLOAD,2024-02-20 11:13:02,14.98328833,0.0002876,70.0006,130.8223,269.3317,90.7512,-8.1398e-06,-1.9e-06,0.0,0 STARLINK-5337,1 55284U 23010R   24051.46739431 -.00000190  00000-0 -81398-5 0  9995,2 55284  70.0006 130.8223 0002876 269.3317  90.7512 14.98328833 60405,6950.196,96.107,574.06,570.063,0.0
55284.0,STARLINK-5337,PAYLOAD,2024-02-20 14:25:19,14.98328558,0.0002867,70.0006,130.4858,268.9665,91.1166,-1.1486e-05,-2.3e-06,0.0,0 STARLINK-5337,1 55284U 23010R   24051.60091471 -.00000230  00000-0 -11486-4 0  9991,2 55284  70.0006 130.4858 0002867 268.9665  91.1166 14.98328558 60725,6950.197,96.107,574.055,570.07,0.0
55284.0,STARLINK-5337,PAYLOAD,2024-02-21 11:15:03,14.98335833,0.0002982,70.0003,128.2975,273.0664,87.0154,0.00012908,1.448e-05,0.0,0 STARLINK-5337,1 55284U 23010R   24052.46878541  .00001448  00000-0  12908-3 0  9996,2 55284  70.0003 128.2975 0002982 273.0664  87.0154 14.98335833 60557,6950.175,96.107,574.112,569.967,0.0
55284.0,STARLINK-5337,PAYLOAD,2024-02-21 14:27:19,14.98335205,0.0002981,70.0002,127.9608,272.7223,87.3595,0.00011765,1.311e-05,0.0,0 STARLINK-5337,1 55284U 23010R   24052.60230553  .00001311  00000-0  11765-3 0  9996,2 55284  70.0002 127.9608 0002981 272.7223  87.3595 14.98335205 60871,6950.177,96.107,574.114,569.97,0.0
55284.0,STARLINK-5337,PAYLOAD,2024-02-22 04:52:32,14.98321923,0.0002751,70.0011,126.4467,263.271,96.8136,-2.2569e-05,-3.62e-06,0.0,0 STARLINK-5337,1 55284U 23010R   24053.20315868 -.00000362  00000-0 -22569-4 0  9998,2 55284  70.0011 126.4467 0002751 263.2710  96.8136 14.98321923 60664,6950.218,96.108,573.995,570.171,0.0
55284.0,STARLINK-5337,PAYLOAD,2024-02-22 14:29:21,14.98319382,0.0003073,69.9997,125.4343,269.3546,90.7261,-5.0514e-05,-6.96e-06,0.0,0 STARLINK-5337,1 55284U 23010R   24053.60372346 -.00000696  00000-0 -50514-4 0  9997,2 55284  69.9997 125.4343 0003073 269.3546  90.7261 14.98319382 61027,6950.226,96.108,574.227,569.955,0.0
55284.0,STARLINK-5337,PAYLOAD,2024-02-23 11:19:05,14.98337868,0.0003122,69.9992,123.2471,267.1672,92.913,5.2284e-05,5.31e-06,0.0,0 STARLINK-5337,1 55284U 23010R   24054.47159018  .00000531  00000-0  52284-4 0  9994,2 55284  69.9992 123.2471 0003122 267.1672  92.9130 14.98337868 60859,6950.169,96.106,574.203,569.864,0.0
